PHASE 3B (AO-10)        
1 14129U 83058B   21010.65471778 -.00000025  00000-0  00000-0 0  9998
2 14129  25.7687 181.0051 6069244 300.1722  13.3332  2.05871063254677
UOSAT 2 (UO-11)         
1 14781U 84021B   21013.03294763  .00000093  00000-0  17397-4 0  9990
2 14781  97.5895  20.5632 0007319 225.4424 134.6194 14.83236761983893
LUSAT (LO-19)           
1 20442U 90005G   21012.77873282 -.00000016  00000-0  10705-4 0  9991
2 20442  98.7211 327.0124 0010676 258.3158 101.6827 14.32973146618531
EYESAT A (AO-27)        
1 22825U 93061C   21012.91796362 -.00000005  00000-0  15914-4 0  9997
2 22825  98.9240  26.6556 0009298 123.8526 236.3541 14.30103378423753
ITAMSAT (IO-26)         
1 22826U 93061D   21012.92511029  .00000000  00000-0  17823-4 0  9999
2 22826  98.9182  26.5870 0009919 112.9056 247.3174 14.30440882423998
RADIO ROSTO (RS-15)     
1 23439U 94085A   21012.96318043 -.00000037  00000-0  15882-3 0  9995
2 23439  64.8176 267.4334 0155935   3.1739 357.0139 11.27569991 72800
JAS-2 (FO-29)           
1 24278U 96046B   21013.16786704 -.00000022  00000-0  13391-4 0  9990
2 24278  98.5852 101.6115 0350251 191.7224 167.5604 13.53101651205494
TECHSAT 1B (GO-32)      
1 25397U 98043D   21012.80825331 -.00000027  00000-0  76843-5 0  9999
2 25397  98.7537 318.9422 0001725 135.6956 224.4361 14.23699110169347
ISS (ZARYA)             
1 25544U 98067A   21013.13636243  .00001219  00000-0  29964-4 0  9992
2 25544  51.6461  29.6367 0000454 220.3222 247.5628 15.49284295264560
PCSAT (NO-44)           
1 26931U 01043C   21012.90548982 -.00000035  00000-0  18477-4 0  9990
2 26931  67.0524 321.8692 0007435 272.1689  87.8561 14.30602412  6994
SAUDISAT 1C (SO-50)     
1 27607U 02058C   21013.18262554 -.00000000  00000-0  20285-4 0  9999
2 27607  64.5560  93.1278 0029368  90.8393 269.6075 14.75701835971801
CUTE-1 (CO-55)          
1 27844U 03031E   21012.93574277  .00000052  00000-0  42878-4 0  9992
2 27844  98.6814  23.4989 0010152 163.5440 196.6070 14.22281711909871
CUBESAT XI-IV (CO-57)   
1 27848U 03031J   21013.02360465  .00000033  00000-0  34827-4 0  9993
2 27848  98.6875  24.1534 0009809 175.7762 184.3500 14.21862556909755
MOZHAYETS 4 (RS-22)     
1 27939U 03042A   21013.07030815  .00000048  00000-0  17294-4 0  9999
2 27939  98.1164 151.4898 0013951  55.2643 304.9859 14.66931869924748
CUBESAT XI-V            
1 28895U 05043F   21012.92468765  .00000107  00000-0  29408-4 0  9992
2 28895  98.0356 149.7931 0016261 344.7258  15.3452 14.63852827811251
CUTE-1.7+APD II (CO-65) 
1 32785U 08021C   21012.86255942  .00000240  00000-0  31367-4 0  9993
2 32785  97.5940 357.9184 0013589 153.0560 207.1366 14.88610080689097
DELFI-C3 (DO-64)        
1 32789U 08021G   21013.08238090  .00001211  00000-0  81696-4 0  9996
2 32789  97.3951  54.3351 0010813 322.3886  37.6585 15.08384785693507
SEEDS II (CO-66)        
1 32791U 08021J   21012.69983483  .00000426  00000-0  48147-4 0  9999
2 32791  97.5569   3.8070 0014502 121.7063 238.5572 14.91244756689643
YUBILEINY (RS-30)       
1 32953U 08025A   21013.05615913  .00000028  00000-0  12906-3 0  9995
2 32953  82.5043 147.5803 0018649 317.0999  42.8626 12.43099518573678
KKS-1 (KISEKI)          
1 33499U 09002H   21012.85191186  .00000124  00000-0  26088-4 0  9999
2 33499  98.2895 239.1370 0009194 169.7412 190.3986 14.75605968643469
SWISSCUBE               
1 35932U 09051B   21012.82387878  .00000140  00000-0  42536-4 0  9993
2 35932  98.6066 207.8706 0007202 197.7935 162.3011 14.56475544600309
BEESAT-1                
1 35933U 09051C   21013.07083404  .00000112  00000-0  36284-4 0  9992
2 35933  98.6044 209.9822 0005198 208.2894 151.8021 14.56541102600490
ITUPSAT1                
1 35935U 09051E   21013.12025361  .00000100  00000-0  34006-4 0  9995
2 35935  98.6149 210.2006 0007505 211.0919 148.9834 14.55679421600204
XIWANG-1 (HOPE-1)       
1 36122U 09072B   21012.72116529 -.00000019  00000-0  61338-4 0  9997
2 36122 100.1123 359.9673 0008205 101.7519 258.4500 13.16358577532409
JUGNU                   
1 37839U 11058B   21012.56424918  .00000316  00000-0  26547-4 0  9998
2 37839  19.9617  94.6105 0018812 173.1182 216.1846 14.12700158478391
SRMSAT                  
1 37841U 11058D   21012.82439184  .00000290  00000-0  14421-4 0  9990
2 37841  19.9707 161.6946 0011957  24.2525 124.2660 14.10682855477722
M-CUBED & EXP-1 PRIME   
1 37855U 11061F   21013.16810640  .00002676  00000-0  13646-3 0  9994
2 37855 101.7255 216.0339 0168644 172.3389 188.0461 15.07079314503257
STRAND-1                
1 39090U 13009E   21013.07430588  .00000028  00000-0  24872-4 0  9993
2 39090  98.4368 218.8229 0009624  27.4146 332.7545 14.35163512412779
SOMP                    
1 39134U 13015E   21013.20170595  .00001721  00000-0  84193-4 0  9996
2 39134  64.8634 317.0624 0013260 219.4807 140.5356 15.21868244427962
BEESAT-3                
1 39135U 13015F   21012.42033190  .00001519  00000-0  81945-4 0  9996
2 39135  64.8678 346.2860 0018766 209.2314 150.7764 15.18820920426941
BEESAT-2                
1 39136U 13015G   21013.21018831  .00001236  00000-0  69353-4 0  9995
2 39136  64.8743 349.4974 0029578 263.7043  96.0714 15.18200082427346
ZACUBE-1 (TSHEPISOSAT)  
1 39417U 13066B   21012.89999551  .00000295  00000-0  43287-4 0  9995
2 39417  97.5787   5.4269 0057624 312.1822  47.4506 14.81407364386043
GOMX-1                  
1 39430U 13066Q   21013.05031933  .00000137  00000-0  34177-4 0  9993
2 39430  97.8076 305.0936 0149312 244.2736 114.2988 14.59520448380378
CUBEBUG-2 (LO-74)       
1 39440U 13066AA  21012.89002165  .00000327  00000-0  52043-4 0  9993
2 39440  97.6561 350.1083 0080543  21.3073 339.1460 14.76138977383476
FUNCUBE-1 (AO-73)       
1 39444U 13066AE  21012.91057004  .00000350  00000-0  49051-4 0  9993
2 39444  97.5708   7.7619 0056564 303.1484  56.4310 14.82291278384391
UWE-3                   
1 39446U 13066AG  21012.92606942  .00000300  00000-0  46183-4 0  9995
2 39446  97.6193 357.2197 0069519 347.7298  12.2218 14.78674899383527
SPROUT                  
1 39770U 14029E   21013.03407158  .00000787  00000-0  91566-4 0  9990
2 39770  97.9078 124.6097 0009174   6.6231 353.5077 14.88122265360228
UNISAT-6                
1 40012U 14033C   21013.14280221  .00000204  00000-0  37372-4 0  9997
2 40012  97.6869 223.5959 0059140  43.5595 317.0262 14.74225332353318
DUCHIFAT-1              
1 40021U 14033M   21012.79753784  .00000404  00000-0  46615-4 0  9998
2 40021  97.9599 311.4939 0012049 323.1549  36.8839 14.91142291357084
QB50P1                  
1 40025U 14033R   21012.75504335  .00000369  00000-0  44951-4 0  9995
2 40025  97.9259 303.1258 0011889 337.1221  22.9464 14.89303028356247
NUDT-PHONESAT           
1 40900U 15049B   21013.15013250  .00002791  00000-0  11363-3 0  9992
2 40900  97.4257  28.3643 0011487 334.0619  90.9365 15.25291562295143
ZDPS 2A                 
1 40901U 15049C   21013.14281890  .00001531  00000-0  76494-4 0  9997
2 40901  97.4627  22.1579 0013692  10.3233  54.3124 15.18923827294392
ZDPS 2B                 
1 40902U 15049D   21013.12482243  .00001688  00000-0  83953-4 0  9992
2 40902  97.4640  19.4228 0013597   8.1097  56.8817 15.18939256294361
XW-2A                   
1 40903U 15049E   21013.15974601  .00002512  00000-0  56552-4 0  9992
2 40903  97.2609  68.0266 0011579 214.1531 230.4620 15.44201067298825
KAITUO 1A               
1 40904U 15049F   21013.18781898  .00000589  00000-0  34134-4 0  9994
2 40904  97.4827  17.1438 0015227  22.4566 107.8501 15.15961035294016
2015-049G               
1 40905U 15049G   21013.15568610  .00000292  00000-0  19261-4 0  9992
2 40905  97.4938  14.2336 0016265  20.4765  38.0108 15.14787170293828
XW-2C                   
1 40906U 15049H   21013.17361986  .00000825  00000-0  45819-4 0  9992
2 40906  97.4823  17.5371 0015046  13.3424  48.9806 15.16423521294034
XW-2D                   
1 40907U 15049J   21013.13273641  .00000982  00000-0  53442-4 0  9994
2 40907  97.4810  17.2448 0014419  10.2895  52.5778 15.16702487294056
LILACSAT-2              
1 40908U 15049K   21013.13041524  .00000633  00000-0  38166-4 0  9997
2 40908  97.4989  15.3067 0016496  22.8249  41.6019 15.14252303293724
XW-2F                   
1 40910U 15049M   21013.15196951  .00001246  00000-0  63570-4 0  9995
2 40910  97.4708  20.1415 0014587 358.0188  66.3042 15.18511330294152
XW-2B                   
1 40911U 15049N   21013.12756539  .00001075  00000-0  58299-4 0  9999
2 40911  97.4814  17.9361 0014362  11.3225  53.4498 15.16624334293942
KAITUO 1B               
1 40912U 15049P   21013.14154927  .00001577  00000-0  74187-4 0  9996
2 40912  97.4470  24.4452 0013916 332.8740  92.0087 15.20981275294581
TIANWANG 1C (TW-1C)     
1 40926U 15051B   21013.14887701  .00133333  00000-0  49463-3 0  9991
2 40926  97.0517  74.0024 0001307  41.8804  14.5171 15.87745475299984
TIANWANG 1A (TW-1A)     
1 40928U 15051D   21013.15629470  .00003701  00000-0  82206-4 0  9999
2 40928  97.0927  41.8380 0011448 134.7927 299.5558 15.44246848297719
LAPAN-A2                
1 40931U 15052B   21013.20056089  .00000625  00000-0 -21810-5 0  9998
2 40931   6.0001 279.5898 0013755   3.2471 356.8082 14.76657759286311
E-ST@R-II               
1 41459U 16025D   21013.18029966  .00001616  00000-0  83976-4 0  9996
2 41459  98.1194 140.4501 0161526 225.3660 133.4324 15.07240553259027
AAUSAT 4                
1 41460U 16025E   21013.10882955  .00003337  00000-0  16173-3 0  9991
2 41460  98.1185 143.5181 0150061 211.6591 147.5593 15.09933845259265
NUSAT-1 (FRESCO)        
1 41557U 16033B   21013.10122372  .00001491  00000-0  55874-4 0  9998
2 41557  97.3989 107.9966 0014816  68.5352 342.0716 15.28760134257796
BEESAT-4                
1 41619U 16040W   21012.89921911  .00001835  00000-0  76745-4 0  9998
2 41619  97.2934  73.2279 0011586 153.5955 206.5876 15.24784564241301
